[{"OBJECT_NAME":"STARLINK-35784","OBJECT_ID":"2025-298U","EPOCH":"2026-03-09T22:31:12.185472","MEAN_MOTION":14.99157284,"ECCENTRICITY":0.00025226,"INCLINATION":70.0036,"RA_OF_ASC_NODE":13.8718,"ARG_OF_PERICENTER":255.9225,"MEAN_ANOMALY":104.1654,"EPHEMERIS_TYPE":0,"CLASSIFICATION_TYPE":"U","NORAD_CAT_ID":67093,"ELEMENT_SET_NO":999,"REV_AT_EPOCH":1325,"BSTAR":0.00048528132,"MEAN_MOTION_DOT":5.827e-5,"MEAN_MOTION_DDOT":0},{"OBJECT_NAME":"SL-24 R\/B","OBJECT_ID":"2010-030B","EPOCH":"2026-03-09T20:03:11.519136","MEAN_MOTION":14.28694925,"ECCENTRICITY":0.04193605,"INCLINATION":97.4475,"RA_OF_ASC_NODE":10.8424,"ARG_OF_PERICENTER":179.6805,"MEAN_ANOMALY":180.473,"EPHEMERIS_TYPE":0,"CLASSIFICATION_TYPE":"U","NORAD_CAT_ID":36606,"ELEMENT_SET_NO":999,"REV_AT_EPOCH":81697,"BSTAR":0.0001219417,"MEAN_MOTION_DOT":7.51e-6,"MEAN_MOTION_DDOT":0}]
